{"fetched_at":"2026-03-29T16:36:15Z","count":15609,"tles":[{"name":"KUIPER-00065","line1":"1 64525U 25134AB  26087.86810998  .00004255  00000+0  58642-3 0  9992","line2":"2 64525  51.9036 155.8797 0000690  68.8123 291.2913 14.79960907 42794","category":"Other"}]}